[{"OBJECT_NAME":"HORS 2","OBJECT_ID":"2023-091AG","EPOCH":"2026-03-09T22:11:34.810944","MEAN_MOTION":15.2928008,"ECCENTRICITY":0.00098173,"INCLINATION":97.5195,"RA_OF_ASC_NODE":134.7443,"ARG_OF_PERICENTER":79.3164,"MEAN_ANOMALY":280.9181,"EPHEMERIS_TYPE":0,"CLASSIFICATION_TYPE":"U","NORAD_CAT_ID":57196,"ELEMENT_SET_NO":999,"REV_AT_EPOCH":14934,"BSTAR":0.00059338338,"MEAN_MOTION_DOT":0.00016821,"MEAN_MOTION_DDOT":0},{"OBJECT_NAME":"STARLINK-35756","OBJECT_ID":"2025-303N","EPOCH":"2026-03-09T00:46:39.265824","MEAN_MOTION":15.27573218,"ECCENTRICITY":0.00012467,"INCLINATION":42.9985,"RA_OF_ASC_NODE":314.508,"ARG_OF_PERICENTER":282.7814,"MEAN_ANOMALY":77.2899,"EPHEMERIS_TYPE":0,"CLASSIFICATION_TYPE":"U","NORAD_CAT_ID":67175,"ELEMENT_SET_NO":999,"REV_AT_EPOCH":1263,"BSTAR":0.0014360744,"MEAN_MOTION_DOT":0.00039459,"MEAN_MOTION_DDOT":0}]
